{
  "norad_id": 56553,
  "name": "STARLINK-6074",
  "history": [
    {
      "epoch": "2026-03-28T18:40:55.577856Z",
      "apogee_km": 483.5483078018897,
      "perigee_km": 482.5409491151995,
      "latitude_deg": -4.081551552309942e-05,
      "longitude_deg": 9.164899408715701,
      "height_km": 482.7394557102625,
      "semi_major_axis_km": 6861.181628458545,
      "eccentricity": 7.341e-05,
      "inclination_deg": 43.0018,
      "raan_deg": 115.5905,
      "arg_perigee_deg": 279.312,
      "mean_anomaly_deg": 80.7648,
      "mean_motion_rev_day": 15.27581492
    }
  ]
}